NORAD_CAT_ID,OBJECT_NAME,OBJECT_TYPE,EPOCH,MEAN_MOTION,ECCENTRICITY,INCLINATION,RA_OF_ASC_NODE,ARG_OF_PERICENTER,MEAN_ANOMALY,BSTAR,MEAN_MOTION_DOT,MEAN_MOTION_DDOT,TLE_LINE0,TLE_LINE1,TLE_LINE2,SEMIMAJOR_AXIS,PERIOD,APOGEE,PERIGEE,DECAYED
54777.0,STARLINK-5468,PAYLOAD,2023-10-12 00:47:46,15.08849382,0.0001672,53.2184,32.8499,72.9094,287.2081,0.0017865,0.00028266,0.0,0 STARLINK-5468,1 54777U 22175V   23285.03317352  .00028266  00000-0  17865-2 0  9994,2 54777  53.2184  32.8499 0001672  72.9094 287.2081 15.08849382 44966,6917.852,95.437,540.873,538.56,0.0
54777.0,STARLINK-5468,PAYLOAD,2023-10-12 13:30:51,15.08860108,0.0001608,53.2175,30.4701,85.2334,274.8842,0.0015042,0.00023746,0.0,0 STARLINK-5468,1 54777U 22175V   23285.56309054  .00023746  00000-0  15042-2 0  9995,2 54777  53.2175  30.4701 0001608  85.2334 274.8842 15.08860108 47205,6917.819,95.436,540.796,538.572,0.0
54777.0,STARLINK-5468,PAYLOAD,2023-10-12 18:17:00,15.08876371,0.000168,53.2181,29.5789,79.7597,280.3584,0.001857,0.00029419,0.0,0 STARLINK-5468,1 54777U 22175V   23285.76180628  .00029419  00000-0  18570-2 0  9993,2 54777  53.2181  29.5789 0001680  79.7597 280.3584 15.08876371 45073,6917.769,95.435,540.796,538.472,0.0
54777.0,STARLINK-5468,PAYLOAD,2023-10-13 00:38:32,15.0884882,0.0001152,53.2196,28.3888,94.1605,265.9519,0.00052422,8.067e-05,0.0,0 STARLINK-5468,1 54777U 22175V   23286.02676780  .00008067  00000-0  52422-3 0  9993,2 54777  53.2196  28.3888 0001152  94.1605 265.9519 15.08848820 45111,6917.853,95.437,540.515,538.921,0.0
54777.0,STARLINK-5468,PAYLOAD,2023-10-13 13:21:37,15.0885175,0.0001649,53.2184,26.0098,91.8572,268.2609,0.00058793,9.084e-05,0.0,0 STARLINK-5468,1 54777U 22175V   23286.55668882  .00009084  00000-0  58793-3 0  9992,2 54777  53.2184  26.0098 0001649  91.8572 268.2609 15.08851750 47354,6917.844,95.437,540.85,538.569,0.0
54777.0,STARLINK-5468,PAYLOAD,2023-10-14 10:01:38,15.08860859,0.0001668,53.2185,22.1458,85.0424,275.0759,0.0011418,0.00017941,0.0,0 STARLINK-5468,1 54777U 22175V   23287.41780730  .00017941  00000-0  11418-2 0  9998,2 54777  53.2185  22.1458 0001668  85.0424 275.0759 15.08860859 45321,6917.817,95.436,540.836,538.528,0.0
54777.0,STARLINK-5468,PAYLOAD,2023-10-14 13:12:24,15.088735,0.0001297,53.2185,21.5497,88.8941,271.2199,0.0013343,0.00021031,0.0,0 STARLINK-5468,1 54777U 22175V   23287.55028356  .00021031  00000-0  13343-2 0  9996,2 54777  53.2185  21.5497 0001297  88.8941 271.2199 15.08873500 47505,6917.778,95.435,540.54,538.746,0.0
54777.0,STARLINK-5468,PAYLOAD,2023-10-15 09:52:26,15.08822764,0.0001812,53.2191,17.6842,122.566,237.5507,0.00045637,6.979e-05,0.0,0 STARLINK-5468,1 54777U 22175V   23288.41141479  .00006979  00000-0  45637-3 0  9990,2 54777  53.2191  17.6842 0001812 122.5660 237.5507 15.08822764 45477,6917.933,95.439,541.052,538.545,0.0
54777.0,STARLINK-5468,PAYLOAD,2023-10-15 13:03:12,15.08828117,0.0001398,53.2187,17.0919,105.0144,255.1003,8.4208e-05,1.052e-05,0.0,0 STARLINK-5468,1 54777U 22175V   23288.54389544  .00001052  00000-0  84208-4 0  9996,2 54777  53.2187  17.0919 0001398 105.0144 255.1003 15.08828117 47650,6917.917,95.438,540.749,538.815,0.0
54777.0,STARLINK-5468,PAYLOAD,2023-10-16 11:18:36,15.08850862,0.0001433,53.218,12.9298,107.6671,252.4477,0.0010521,0.00016501,0.0,0 STARLINK-5468,1 54777U 22175V   23289.47125956  .00016501  00000-0  10521-2 0  9994,2 54777  53.2180  12.9298 0001433 107.6671 252.4477 15.08850862 45633,6917.847,95.437,540.704,538.721,0.0
54777.0,STARLINK-5468,PAYLOAD,2023-10-16 12:53:59,15.08853518,0.0001462,53.2183,12.633,108.5328,251.5823,0.0010744,0.00016859,0.0,0 STARLINK-5468,1 54777U 22175V   23289.53749896  .00016859  00000-0  10744-2 0  9999,2 54777  53.2183  12.6330 0001462 108.5328 251.5823 15.08853518 47808,6917.839,95.437,540.715,538.693,0.0
54777.0,STARLINK-5468,PAYLOAD,2023-10-17 11:09:23,15.08850458,0.0001585,53.2171,8.4685,83.59,276.5273,0.00058202,8.99e-05,0.0,0 STARLINK-5468,1 54777U 22175V   23290.46485978  .00008990  00000-0  58202-3 0  9990,2 54777  53.2171   8.4685 0001585  83.5900 276.5273 15.08850458 45786,6917.848,95.437,540.81,538.617,0.0
54777.0,STARLINK-5468,PAYLOAD,2023-10-17 23:52:28,15.08849517,0.0001907,53.2165,6.0899,108.7141,251.4058,0.00060067,9.287e-05,0.0,0 STARLINK-5468,1 54777U 22175V   23290.99477760  .00009287  00000-0  60067-3 0  9990,2 54777  53.2165   6.0899 0001907 108.7141 251.4058 15.08849517 45861,6917.851,95.437,541.036,538.397,0.0
54777.0,STARLINK-5468,PAYLOAD,2023-10-18 11:00:10,15.08844971,0.0001764,53.2165,4.0082,107.2933,252.8252,0.00020657,3.001e-05,0.0,0 STARLINK-5468,1 54777U 22175V   23291.45845736  .00003001  00000-0  20657-3 0  9993,2 54777  53.2165   4.0082 0001764 107.2933 252.8252 15.08844971 45935,6917.865,95.437,540.951,538.51,0.0
54777.0,STARLINK-5468,PAYLOAD,2023-10-19 10:50:57,15.08851296,0.0001771,53.2161,359.5477,97.7276,262.3917,0.0002831,4.222e-05,0.0,0 STARLINK-5468,1 54777U 22175V   23292.45205541  .00004222  00000-0  28310-3 0  9998,2 54777  53.2161 359.5477 0001771  97.7276 262.3917 15.08851296 48247,6917.846,95.437,540.936,538.486,0.0
54777.0,STARLINK-5468,PAYLOAD,2023-10-19 21:58:39,15.08849204,0.0001897,53.2159,357.4679,76.1635,283.9568,0.00034535,5.214e-05,0.0,0 STARLINK-5468,1 54777U 22175V   23292.91573728  .00005214  00000-0  34535-3 0  9992,2 54777  53.2159 357.4679 0001897  76.1635 283.9568 15.08849204 48319,6917.852,95.437,541.03,538.405,0.0
54777.0,STARLINK-5468,PAYLOAD,2023-10-20 10:41:45,15.08840497,0.0001973,53.2169,355.0853,118.5404,241.5787,9.4649e-05,1.219e-05,0.0,0 STARLINK-5468,1 54777U 22175V   23293.44566068  .00001219  00000-0  94649-4 0  9994,2 54777  53.2169 355.0853 0001973 118.5404 241.5787 15.08840497 46235,6917.879,95.438,541.109,538.379,0.0
54777.0,STARLINK-5468,PAYLOAD,2023-10-21 10:32:31,15.08846181,0.0001646,53.2172,350.6255,96.3271,263.7908,6.6013e-05,7.63e-06,0.0,0 STARLINK-5468,1 54777U 22175V   23294.43925844  .00000763  00000-0  66013-4 0  9992,2 54777  53.2172 350.6255 0001646  96.3271 263.7908 15.08846181 48541,6917.861,95.437,540.865,538.588,0.0
54777.0,STARLINK-5468,PAYLOAD,2023-10-22 10:23:19,15.08841059,0.0001536,53.2175,346.1656,98.3516,261.7651,0.00018896,2.721e-05,0.0,0 STARLINK-5468,1 54777U 22175V   23295.43286238  .00002721  00000-0  18896-3 0  9991,2 54777  53.2175 346.1656 0001536  98.3516 261.7651 15.08841059 46530,6917.877,95.437,540.805,538.68,0.0
54777.0,STARLINK-5468,PAYLOAD,2023-10-22 19:55:38,15.08836287,0.0001444,53.2167,344.3794,91.8444,268.2713,9.6284e-05,1.245e-05,0.0,0 STARLINK-5468,1 54777U 22175V   23295.83030557  .00001245  00000-0  96284-4 0  9994,2 54777  53.2167 344.3794 0001444  91.8444 268.2713 15.08836287 48754,6917.892,95.438,540.756,538.758,0.0
54777.0,STARLINK-5468,PAYLOAD,2023-10-23 10:14:06,15.08838487,0.000153,53.2178,341.7065,95.1609,264.9557,4.6042e-07,-2.81e-06,0.0,0 STARLINK-5468,1 54777U 22175V   23296.42646547 -.00000281  00000-0  46042-6 0  9991,2 54777  53.2178 341.7065 0001530  95.1609 264.9557 15.08838487 48847,6917.885,95.438,540.808,538.692,0.0
54777.0,STARLINK-5468,PAYLOAD,2023-10-24 03:43:21,15.08836752,0.0001538,53.2176,338.4358,97.1245,262.9922,5.3818e-05,5.69e-06,0.0,0 STARLINK-5468,1 54777U 22175V   23297.15510843  .00000569  00000-0  53818-4 0  9996,2 54777  53.2176 338.4358 0001538  97.1245 262.9922 15.08836752 46798,6917.89,95.438,540.819,538.691,0.0
54777.0,STARLINK-5468,PAYLOAD,2023-10-24 10:04:54,15.08838196,0.0001451,53.2181,337.2464,92.2004,267.9154,0.00010514,1.386e-05,0.0,0 STARLINK-5468,1 54777U 22175V   23297.42007043  .00001386  00000-0  10514-3 0  9992,2 54777  53.2181 337.2464 0001451  92.2004 267.9154 15.08838196 48992,6917.886,95.438,540.755,538.747,0.0
54777.0,STARLINK-5468,PAYLOAD,2023-10-25 11:31:04,15.08829212,0.000153,53.217,332.4867,95.8672,264.2495,0.00052132,8.016e-05,0.0,0 STARLINK-5468,1 54777U 22175V   23298.47991050  .00008016  00000-0  52132-3 0  9997,2 54777  53.2170 332.4867 0001530  95.8672 264.2495 15.08829212 46997,6917.913,95.438,540.837,538.72,0.0
54777.0,STARLINK-5468,PAYLOAD,2023-10-26 09:46:27,15.08850889,0.0001493,53.2161,328.3237,91.2031,268.9132,0.0001725,2.459e-05,0.0,0 STARLINK-5468,1 54777U 22175V   23299.40726047  .00002459  00000-0  17250-3 0  9990,2 54777  53.2161 328.3237 0001493  91.2031 268.9132 15.08850889 47139,6917.847,95.437,540.745,538.679,0.0
54777.0,STARLINK-5468,PAYLOAD,2023-10-26 11:21:50,15.08852114,0.0001561,53.2161,328.0263,83.2095,276.9075,0.0001932,2.789e-05,0.0,0 STARLINK-5468,1 54777U 22175V   23299.47350017  .00002789  00000-0  19320-3 0  9993,2 54777  53.2161 328.0263 0001561  83.2095 276.9075 15.08852114 49301,6917.843,95.437,540.788,538.628,0.0
54777.0,STARLINK-5468,PAYLOAD,2023-10-26 19:18:46,15.08846942,0.0001525,53.2162,326.5392,89.054,271.0626,0.0001104,1.47e-05,0.0,0 STARLINK-5468,1 54777U 22175V   23299.80470159  .00001470  00000-0  11040-3 0  9997,2 54777  53.2162 326.5392 0001525  89.0540 271.0626 15.08846942 49352,6917.859,95.437,540.779,538.669,0.0
54777.0,STARLINK-5468,PAYLOAD,2023-10-27 01:40:18,15.08844352,0.0001674,53.216,325.3482,89.4594,270.659,1.8001e-05,-2e-08,0.0,0 STARLINK-5468,1 54777U 22175V   23300.06966363 -.00000002  00000-0  18001-4 0  9991,2 54777  53.2160 325.3482 0001674  89.4594 270.6590 15.08844352 47238,6917.867,95.437,540.89,538.574,0.0
54777.0,STARLINK-5468,PAYLOAD,2023-10-27 08:01:51,15.0884999,0.0001513,53.2153,324.1596,95.7705,264.346,0.00011305,1.512e-05,0.0,0 STARLINK-5468,1 54777U 22175V   23300.33461940  .00001512  00000-0  11305-3 0  9997,2 54777  53.2153 324.1596 0001513  95.7705 264.3460 15.08849990 49432,6917.85,95.437,540.762,538.668,0.0
54777.0,STARLINK-5468,PAYLOAD,2023-10-27 19:09:33,15.08840389,0.0001705,53.2168,322.0762,92.4441,267.6746,2.9933e-05,1.88e-06,0.0,0 STARLINK-5468,1 54777U 22175V   23300.79830517  .00000188  00000-0  29933-4 0  9992,2 54777  53.2168 322.0762 0001705  92.4441 267.6746 15.08840389 49508,6917.879,95.438,540.924,538.565,0.0
